0 COSMOS 2353
1 25364U 98036B   13281.49460597  .00000021  00000-0  10000-3 0  5325
2 25364 082.5908 204.7382 0354580 230.9489 125.9530 12.21772546683054
0 COSMOS 2353
1 25364U 98036B   13283.78750842  .00000021  00000-0  10000-3 0  5335
2 25364 082.5906 203.3815 0354632 226.1100 131.0179 12.21772471683338
0 COSMOS 2353
1 25364U 98036B   13285.83474754  .00000021  00000-0  10000-3 0  5349
2 25364 082.5904 202.1704 0354663 221.7708 135.5787 12.21772359683585
0 COSMOS 2353
1 25364U 98036B   13287.88199075  .00000021  00000-0  10000-3 0  5357
2 25364 082.5902 200.9596 0354692 217.4378 140.1499 12.21772232683835
0 COSMOS 2353
1 25364U 98036B   13290.17490732  .00000021  00000-0  10000-3 0  5368
2 25364 082.5904 199.6035 0354718 212.6019 145.2699 12.21772122684115
0 COSMOS 2353
1 25364U 98036B   13292.22215720  .00000022  00000-0  10000-3 0  5370
2 25364 082.5903 198.3925 0354744 208.2848 149.8551 12.21772062684365
0 COSMOS 2353
1 25364U 98036B   13294.51508157  .00000022  00000-0  10000-3 0  5384
2 25364 082.5896 197.0358 0354817 203.4450 155.0091 12.21771843684644
